#dP2019 10 18  0  0  0.00000000      97 __u+U IGS08 FIT  IAC
## 2075 432000.00000000   900.00000000 58774 0.0000000000000
+  114   C01C02C03C04C05C06C07C08C09C10C11C12C13C14C16C19C20
+        C21C22C23C24C25C26C27C28C29C30C32C33C34C35C36C37E01
+        E02E03E04E05E07E08E09E11E12E13E14E15E18E19E21E24E25
+        E26E27E30E31E33E36G01G02G03G05G06G07G08G09G10G11G12
+        G13G14G15G16G17G18G19G20G21G22G23G24G25G26G27G28G29
+        G30G31G32J01J02J03J07R01R02R03R05R07R08R09R11R12R13
+        R14R15R16R17R18R19R20R21R22R23R24R26  0  0  0  0  0
++        13 13 13 13 12  8  8  8  8  8  7  7  7  7  8  7  7
++         7  7  7  8  7  8  7  7  7  7  7  8  8  8  8  8  4
++         4  4  4  4  4  4  4  4  4  4  4  4  4  4  4  4  4
++         4  4  4  4  4  5  3  3  3  3  3  3  3  3  3  3  3
++         3  3  3  3  3  3  3  3  3  3  3  3  3  3  3  3  3
++         3  3  3  8  8  8 13  6  5  5  5  5  5  5  5  5  6
++         5  5  6  5  5  6  6  5  5  5  6  7  0  0  0  0  0
%c M  cc GPS ccc cccc cccc cccc cccc ccccc ccccc ccccc ccccc
%c cc cc ccc ccc cccc cccc cccc cccc ccccc ccccc ccccc ccccc
%f  1.2500000  1.025000000  0.00000000000  0.000000000000000
%f  0.0000000  0.000000000  0.00000000000  0.000000000000000
%i    0    0    0    0      0      0      0      0         0
%i    0    0    0    0      0      0      0      0         0
/* INFORMATION & ANALYSIS CENTER (IAC)            FINAL DATA
/* S/V CLOCKS ARE ALIGNED TO GNSS TIME                      
/* G:C1WC2W R:C1PC2P E:C1XC5X C:C2IC6I J:C1CC2S             
/* PCV:IGS14_2070 OL/AL:FES2004  NONE     YN ORB:CoN CLK:CoN
*  2019 10 18 11 15  0.00000000
PC01 -32331.168519  27087.909178   -512.491986     28.188455
PC02   4445.064002  41904.877998   -268.672382    250.622752
PC03 -14712.883670  39515.489033   -733.009563    329.449088
PC04 -39630.534165  14459.722202   -390.532933   -398.566023
PC05  21876.707520  36042.018276   -139.280078     46.320762
PC06 -21900.968449  23802.287731  27183.461310    356.594846
PC07 -17144.366956  38063.766262   7733.993151   -202.741913
PC08  -6843.515253  23445.621887 -34225.797665    -17.918974
PC09  -4609.410927  24991.856876  33827.512767     49.150572
PC10  -6902.858510  41423.964056  -5592.657066   -280.606376
PC11  26825.753980   6912.135236  -2987.935621     49.898289
PC12   4132.491278  15790.365920 -22552.108314    305.650107
PC13   6199.228618  32341.013579 -26118.796343   -836.399748
PC14  18017.578048   1485.822671  21265.732068     92.303432
PC16 -18186.993679  24275.622984  29240.584052   -894.531991
PC19 -21138.494538   7923.928829 -16397.729370    221.607595
PC20 -12412.253401 -10021.054347 -22887.486572   -185.611670
PC21  -4021.694745  22557.469498  15952.614542    246.877531
PC22 -17781.062095  21527.588877   -260.870979   -240.045866
PC23   8614.110839 -17575.221652 -19876.792415   -902.970599
PC24  15575.511881  20421.582552 -10884.365313   -881.792501
PC25  17155.951553   1260.847969 -21968.506184   -384.017358
PC26   5956.778197  26611.455777   5854.377646    427.472189
PC27  -3848.437642 -16381.314396  22246.761481    209.045073
PC28  16603.590661 -10758.303416  19678.640748    200.310113
PC29 -27334.309841    -85.830873  -5637.878813    133.726083
PC30 -22318.595513 -11700.948276  11975.385852    209.854131
PC32   3844.584611 -22575.071963 -15935.963193   -890.757201
PC33  21098.362592  -7909.355053  16450.877240   -480.588981
PC34  22511.072965  11654.908225 -11688.810443   -163.296007
PC35 -16319.507926  11313.143187 -19593.907399   -457.085653
PC36 -17169.163198  -1842.496210  21952.605399   -945.128644
PC37  -5002.819659 -26714.976530  -6321.052410   -624.983563
PE01 -16048.462502   8278.570199  23463.947118   -713.076132
PE02  16029.532988  -8366.809923 -23428.722897     85.981675
PE03  27434.014608  -9994.590127   4808.102452   -223.137515
PE04 -17933.555654  19514.277744  13185.406288   -387.753171
PE05  20956.529071   5481.021126  20168.621605   -439.031723
PE07  -2273.652403 -17654.862140 -23645.938173   -285.208981
PE08  17677.159715 -19607.874341 -13374.436891   6276.023665
PE09   2371.473623  17503.305615  23755.409388   6281.428627
PE11  12512.874530  21074.698498 -16606.566567   5548.032976
PE12  -8069.447699  14233.822241 -24665.374834   6144.048413
PE13 -12493.789198 -20966.681856  16755.537760    394.311496
PE14 -13816.959638  19060.921403 -21600.432535   -761.105840
PE15   7639.674038 -14403.949614  24710.759331    891.138759
PE18  17346.894758 -11673.622890  12600.638188   -855.609706
PE19 -27502.388158   8588.210160  -6785.703074     -3.361811
PE21 -13832.000166 -14198.220095  21987.702418   -560.933695
PE24   3400.314923  28383.336314  -7655.584401   5813.836457
PE25  13787.884071  14304.570846 -21930.145798   1643.943770
PE26 -25293.734652 -15343.667291  -1204.760492   3980.378270
PE27  -3478.943268 -28406.571041   7569.109653    364.443864
PE30   9043.351711 -25859.090312 -11218.624071   4457.506575
PE31  -8902.044797  25891.225684  11276.037284   -469.724729
PE33 -23343.617854   -629.413244 -18187.457372   -471.219159
PE36  25346.848159  15244.752941   1051.282627    648.184976
PG01  20230.677705  11195.479198  13146.945669   -166.752299
PG02 -13420.177494 -22047.131853   7151.108039   -328.379497
PG03  15892.007138   -219.203982  21207.689234    -23.978727
PG05  -6318.391541 -19162.279697 -17311.143193     -2.453609
PG06  -1136.964068 -20070.675709  17387.786032    -94.456833
PG07  15378.090909  -4460.482598 -20981.585565   -129.657561
PG08  21305.860592   6509.152846 -14585.489453    -10.317864
PG09  24924.357993  -7792.033474  -4915.325743    -59.912918
PG10 -11339.022671  23689.359981  -2997.946764    -98.914257
PG11  24733.778953   7702.214980   4567.273776   -474.611571
PG12 -13566.649197  -5624.107451  21912.341394    192.817978
PG13 -12929.755040 -12959.843128 -19385.639888    -38.164233
PG14  -1682.195571  15444.213707  21856.613998    -55.476652
PG15 -22484.954459  -4918.830028 -13869.064755   -279.050316
PG16   2385.939798  20461.699085 -16700.415987    -84.442530
PG17  12570.803824 -14010.080770  19123.168201    146.370596
PG18  19808.505234  16920.356082   4924.847627     93.892261
PG19   5607.772041 -14491.558272  21248.337899   -252.094196
PG20 -14369.763371  18228.979235 -12843.843537    527.233695
PG21 -11672.649383   9549.354364 -21074.534772   -100.463300
PG22  14120.873917   8145.144522  21196.631508   -764.898274
PG23  26134.477145   -118.697593   6127.252537   -160.759403
PG24 -21301.045825 -11983.072973  10647.405420     -3.640290
PG25 -16872.218212  10291.559625  17405.751577    -15.642628
PG26  -3150.746486  25154.709916  -7599.508442     64.208749
PG27  10086.243052  12808.096741 -21143.589782    -91.383583
PG28  12629.892852 -23347.800630  -1375.487129    758.604020
PG29 -25980.323661   4499.661130  -3344.747807     68.099425
PG30   7144.434007 -15350.795483 -20388.881219    -64.204792
PG31   2134.049799  21054.871147  15749.793166      2.859753
PG32 -11850.541036  15060.646827  18396.295475     95.415859
PJ01 -27208.565524  32036.093774    905.116579   -338.176653
PJ02 -25219.457420  25605.870732  26813.345832     -5.999009
PJ03 -33703.196548  16861.684014 -14292.859153     -4.161133
PJ07 -25385.817026  33666.947996     51.971707     -0.270095
PR01 -15326.941326  18618.011317   8330.776471     51.351428
PR02   1572.448876  12395.510339  22261.555852    393.442851
PR03  15744.849179   -678.895270  20106.852442      3.336446
PR05  14048.146512 -18370.436317 -10783.814005     37.726571
PR07 -16006.584974   1085.068060 -19788.195738    -28.189877
PR08 -20746.191306  13309.145614  -6497.328591     14.993580
PR09  -8139.408783 -22645.220915   8377.352566     96.367444
PR11  -9321.537232   8714.715183  22116.807741    -83.057574
PR12  -1874.166384  22361.044838  12147.183323     71.292679
PR13   7223.414776  23779.206863  -5773.395116    -29.796152
PR14  11549.357314  11257.184703 -19749.114400     44.121913
PR15   9432.009700  -7702.396582 -22385.738085    104.418968
PR16   1387.158377 -22640.286151 -11800.571708      2.228266
PR17  23620.119930   9451.789529  -1461.380880    269.251328
PR18  20817.705273    637.569659  14773.337933     11.350234
PR19   7133.381841  -8254.096636  23055.832087    -59.455020
PR20 -12634.416388 -13495.617667  17564.472874   -393.675198
PR21 -23811.320312  -9176.147701    690.927373    -79.504293
PR22 -18916.460708   1022.927431 -17016.510583   -180.595619
PR23   -845.726390  10777.329952 -23111.091036    261.026009
PR24  14726.005423  13271.393855 -16080.543603   -185.825070
PR26  -9662.337550 -13071.522098  19681.037272      1.706266
EOF
